STARLINK-32144          
1 60269U 24131Q   26157.83881531  .00001054  00000+0  45711-4 0  9993
2 60269  53.1613 357.9212 0001200  81.3006 278.8132 15.31707801105420
STARLINK-32211          
1 60270U 24131R   26157.83962231  .00000177  00000+0  18106-4 0  9995
2 60270  53.1615 358.6482 0001087  80.5281 279.5843 15.30196370105362
STARLINK-32164          
1 60271U 24131S   26157.84383782  .00001417  00000+0  59945-4 0  9999
2 60271  53.1607 358.6657 0001113  81.4978 278.6149 15.30204366105264
STARLINK-32128          
1 60272U 24131T   26158.25146366  .00004920  00000+0  17844-3 0  9994
2 60272  53.1639 356.2330 0002844  97.9022 262.2301 15.30146835105430
STARLINK-32206          
1 60273U 24131U   26156.85354736  .00002604  00000+0  99958-4 0  9995
2 60273  53.1613   3.1594 0000927  93.4815 266.6292 15.30216329105213
STARLINK-32155          
1 60274U 24131V   26157.28891989  .00018520  00000+0  60642-3 0  9991
2 60274  53.1628   0.8874 0001314  96.1328 263.9824 15.31734246105186
STARLINK-32152          
1 60275U 24131W   26158.24828427 -.00000158  00000+0  67860-5 0  9996
2 60275  53.1618 356.2116 0001337 108.8283 251.2863 15.30194664105332
STARLINK-32154          
1 60276U 24131X   26158.24195559 -.00000392  00000+0 -11198-5 0  9994
2 60276  53.1592 356.1739 0001517 111.9465 248.1697 15.30192722105435
STARLINK-32135          
1 60277U 24131Y   26158.25874351  .00020198  00000+0  68956-3 0  9996
2 60277  53.1636 356.2720 0000290   3.3340 356.7663 15.30324126105433
STARLINK-32156          
1 60278U 24132A   26158.24935262  .00000704  00000+0  35873-4 0  9990
2 60278  53.1589 356.3471 0000621  94.6374 265.4697 15.30198784106492
STARLINK-32010          
1 60279U 24132B   26158.25332903  .00000759  00000+0  36198-4 0  9996
2 60279  53.1616 356.3737 0001425  86.1027 274.0137 15.31713205105275
STARLINK-32118          
1 60280U 24132C   26158.24302044 -.00001883  00000+0 -51401-4 0  9995
2 60280  53.1599 356.3048 0001414  80.3614 279.7547 15.30234184105278
STARLINK-32038          
1 60281U 24132D   26158.24513219  .00000683  00000+0  35192-4 0  9998
2 60281  53.1620 356.3225 0001392 107.8971 252.2181 15.30203160105277
STARLINK-32113          
1 60282U 24132E   26158.24620100 -.00004831  00000+0 -15115-3 0  9990
2 60282  53.1619 356.3311 0004361 167.8823 192.2283 15.30163597105278
STARLINK-32037          
1 60283U 24132F   26158.50004630  .00050640  00000+0  16336-2 0  9996
2 60283  53.1602 355.3226 0001456  96.5250 133.2507 15.31679545  5908
STARLINK-32123          
1 60284U 24132G   26158.00004630  .00065705  00000+0  22149-2 0  9999
2 60284  53.1585 344.9609 0001385  74.0295 238.6666 15.30142767  5871
STARLINK-32122          
1 60285U 24132H   26157.00003472  .00065316  00000+0  22004-2 0  9990
2 60285  53.1606   2.2666 0001390  79.3446 176.5820 15.30166686  5873
STARLINK-31656          
1 60286U 24132J   26157.84479575  .00001459  00000+0  61362-4 0  9994
2 60286  53.1621 358.0958 0001049  87.7027 272.4094 15.30211781105211
STARLINK-32114          
1 60287U 24132K   26158.26734434  .00000113  00000+0  15416-4 0  9995
2 60287  53.1615 356.4519 0001195 109.6722 250.4408 15.31691756105274
STARLINK-31997          
1 60288U 24132L   26157.83529718  .00001389  00000+0  58981-4 0  9995
2 60288  53.1605 358.0228 0000825  73.4444 286.6647 15.30205711105218
STARLINK-32000          
1 60289U 24132M   26157.84315834  .00001325  00000+0  54444-4 0  9999
2 60289  53.1617 358.0801 0001246  84.7324 275.3819 15.31712837105218
STARLINK-32141          
1 60290U 24132N   26158.25357845  .00000467  00000+0  27886-4 0  9991
2 60290  53.1607 356.3733 0001046 106.3186 253.7930 15.30197534105279
STARLINK-32142          
1 60291U 24132P   26157.84058108  .00000931  00000+0  43542-4 0  9999
2 60291  53.1604 358.0611 0001029  83.1831 276.9287 15.30200754105216
STARLINK-32149          
1 60292U 24132Q   26158.50004630  .00046763  00000+0  15108-2 0  9993
2 60292  53.1600 355.2783 0001278  91.6857 161.9339 15.31666517  5854
STARLINK-32159          
1 60293U 24132R   26157.83847184  .00000392  00000+0  25355-4 0  9993
2 60293  53.1610 358.0437 0001568  92.5476 267.5704 15.30198286105214
STARLINK-32150          
1 60294U 24132S   26158.26301669 -.00000600  00000+0 -75790-5 0  9998
2 60294  53.1624 356.4325 0001233  96.9853 263.1289 15.31695518105271
STARLINK-32126          
1 60295U 24132T   26158.24900352  .00019080  00000+0  62696-3 0  9990
2 60295  53.1621 356.3440 0000909 196.7721 163.3251 15.31601390105273
STARLINK-32143          
1 60296U 24132U   26157.84816738  .00000821  00000+0  38207-4 0  9995
2 60296  53.1614 358.1116 0001337  88.5085 271.6069 15.31713506105210
STARLINK-32034          
1 60297U 24132V   26157.83382135  .00001448  00000+0  58377-4 0  9990
2 60297  53.1619 358.0169 0001161  88.3380 271.7755 15.31713582105211
STARLINK-32124          
1 60298U 24132W   26157.84349585  .00001375  00000+0  56034-4 0  9991
2 60298  53.1609 358.0799 0001264  77.2654 282.8489 15.31713109105217
