OBJECT_NAME,OBJECT_ID,EPOCH,MEAN_MOTION,ECCENTRICITY,INCLINATION,RA_OF_ASC_NODE,ARG_OF_PERICENTER,MEAN_ANOMALY,EPHEMERIS_TYPE,CLASSIFICATION_TYPE,NORAD_CAT_ID,ELEMENT_SET_NO,REV_AT_EPOCH,BSTAR,MEAN_MOTION_DOT,MEAN_MOTION_DDOT
STARLINK-32144,2024-131Q,2026-06-06T20:07:53.642784,15.31707801,.00012002,53.1613,357.9212,81.3006,278.8132,0,U,60269,999,10542,.45710626E-4,.1054E-4,0
STARLINK-32211,2024-131R,2026-06-06T20:09:03.367584,15.30196370,.00010873,53.1615,358.6482,80.5281,279.5843,0,U,60270,999,10536,.18105936E-4,.177E-5,0
STARLINK-32164,2024-131S,2026-06-06T20:15:07.587648,15.30204366,.00011134,53.1607,358.6657,81.4978,278.6149,0,U,60271,999,10526,.59945485E-4,.1417E-4,0
STARLINK-32128,2024-131T,2026-06-07T06:02:06.460224,15.30146835,.0002844,53.1639,356.2330,97.9022,262.2301,0,U,60272,999,10543,.17844E-3,.492E-4,0
STARLINK-32206,2024-131U,2026-06-05T20:29:06.491904,15.30216329,.00009278,53.1613,3.1594,93.4815,266.6292,0,U,60273,999,10521,.99957525E-4,.2604E-4,0
STARLINK-32155,2024-131V,2026-06-06T06:56:02.678496,15.31734246,.00013142,53.1628,0.8874,96.1328,263.9824,0,U,60274,999,10518,.60641919E-3,.1852E-3,0
STARLINK-32152,2024-131W,2026-06-07T05:57:31.760928,15.30194664,.0001337,53.1618,356.2116,108.8283,251.2863,0,U,60275,999,10533,.6786E-5,-.158E-5,0
STARLINK-32154,2024-131X,2026-06-07T05:48:24.962976,15.30192722,.0001517,53.1592,356.1739,111.9465,248.1697,0,U,60276,999,10543,-.11198E-5,-.392E-5,0
STARLINK-32135,2024-131Y,2026-06-07T06:12:35.439264,15.30324126,.000029,53.1636,356.2720,3.3340,356.7663,0,U,60277,999,10543,.68956E-3,.20198E-3,0
STARLINK-32156,2024-132A,2026-06-07T05:59:04.066368,15.30198784,.0000621,53.1589,356.3471,94.6374,265.4697,0,U,60278,999,10649,.35873E-4,.704E-5,0
STARLINK-32010,2024-132B,2026-06-07T06:04:47.628192,15.31713205,.0001425,53.1616,356.3737,86.1027,274.0137,0,U,60279,999,10527,.36198E-4,.759E-5,0
STARLINK-32118,2024-132C,2026-06-07T05:49:56.966016,15.30234184,.0001414,53.1599,356.3048,80.3614,279.7547,0,U,60280,999,10527,-.51401E-4,-.1883E-4,0
STARLINK-32038,2024-132D,2026-06-07T05:52:59.421216,15.30203160,.0001392,53.1620,356.3225,107.8971,252.2181,0,U,60281,999,10527,.35192E-4,.683E-5,0
STARLINK-32113,2024-132E,2026-06-07T05:54:31.766400,15.30163597,.0004361,53.1619,356.3311,167.8823,192.2283,0,U,60282,999,10527,-.15115E-3,-.4831E-4,0
STARLINK-32037,2024-132F,2026-06-07T12:00:04.000320,15.31679545,.0001456,53.1602,355.3226,96.5250,133.2507,0,U,60283,999,590,.16336E-2,.5064E-3,0
STARLINK-32123,2024-132G,2026-06-07T00:00:04.000320,15.30142767,.0001385,53.1585,344.9609,74.0295,238.6666,0,U,60284,999,587,.22149E-2,.65705E-3,0
STARLINK-32122,2024-132H,2026-06-06T00:00:02.999808,15.30166686,.00013903,53.1606,2.2666,79.3446,176.5820,0,U,60285,999,587,.22003586E-2,.65316E-3,0
STARLINK-31656,2024-132J,2026-06-06T20:16:30.352800,15.30211781,.00010497,53.1621,358.0958,87.7027,272.4094,0,U,60286,999,10521,.61362086E-4,.1459E-4,0
STARLINK-32114,2024-132K,2026-06-07T06:24:58.550976,15.31691756,.0001195,53.1615,356.4519,109.6722,250.4408,0,U,60287,999,10527,.15416E-4,.113E-5,0
STARLINK-31997,2024-132L,2026-06-06T20:02:49.676352,15.30205711,.0000825,53.1605,358.0228,73.4444,286.6647,0,U,60288,999,10521,.58980636E-4,.1389E-4,0
STARLINK-32000,2024-132M,2026-06-06T20:14:08.880576,15.31712837,.00012469,53.1617,358.0801,84.7324,275.3819,0,U,60289,999,10521,.54443565E-4,.1325E-4,0
STARLINK-32141,2024-132N,2026-06-07T06:05:09.178080,15.30197534,.0001046,53.1607,356.3733,106.3186,253.7930,0,U,60290,999,10527,.27886E-4,.467E-5,0
STARLINK-32142,2024-132P,2026-06-06T20:10:26.205312,15.30200754,.00010297,53.1604,358.0611,83.1831,276.9287,0,U,60291,999,10521,.43541689E-4,.931E-5,0
STARLINK-32149,2024-132Q,2026-06-07T12:00:04.000320,15.31666517,.0001278,53.1600,355.2783,91.6857,161.9339,0,U,60292,999,585,.15108E-2,.46763E-3,0
STARLINK-32159,2024-132R,2026-06-06T20:07:23.966976,15.30198286,.00015684,53.1610,358.0437,92.5476,267.5704,0,U,60293,999,10521,.25355415E-4,.392E-5,0
STARLINK-32150,2024-132S,2026-06-07T06:18:44.642016,15.31695518,.0001233,53.1624,356.4325,96.9853,263.1289,0,U,60294,999,10527,-.7579E-5,-.6E-5,0
STARLINK-32126,2024-132T,2026-06-07T05:58:33.904128,15.31601390,.0000909,53.1621,356.3440,196.7721,163.3251,0,U,60295,999,10527,.62696E-3,.1908E-3,0
STARLINK-32143,2024-132U,2026-06-06T20:21:21.661632,15.31713506,.00013375,53.1614,358.1116,88.5085,271.6069,0,U,60296,999,10521,.38207219E-4,.821E-5,0
STARLINK-32034,2024-132V,2026-06-06T20:00:42.164640,15.31713582,.00011614,53.1619,358.0169,88.3380,271.7755,0,U,60297,999,10521,.5837654E-4,.1448E-4,0
STARLINK-32124,2024-132W,2026-06-06T20:14:38.041440,15.31713109,.00012644,53.1609,358.0799,77.2654,282.8489,0,U,60298,999,10521,.56033688E-4,.1375E-4,0
